[{"OBJECT_NAME":"STARLINK-4051","OBJECT_ID":"2022-086AH","EPOCH":"2026-03-09T15:06:36.263232","MEAN_MOTION":15.08844762,"ECCENTRICITY":0.0001515,"INCLINATION":53.2177,"RA_OF_ASC_NODE":184.3919,"ARG_OF_PERICENTER":73.7535,"MEAN_ANOMALY":286.3624,"EPHEMERIS_TYPE":0,"CLASSIFICATION_TYPE":"U","NORAD_CAT_ID":53273,"ELEMENT_SET_NO":999,"REV_AT_EPOCH":20118,"BSTAR":4.3047e-6,"MEAN_MOTION_DOT":-2.19e-6,"MEAN_MOTION_DDOT":0},{"OBJECT_NAME":"LANDSAT 5","OBJECT_ID":"1984-021A","EPOCH":"2026-03-09T17:06:39.595392","MEAN_MOTION":15.03956175,"ECCENTRICITY":0.00705197,"INCLINATION":98.0698,"RA_OF_ASC_NODE":343.5816,"ARG_OF_PERICENTER":90.3041,"MEAN_ANOMALY":270.6265,"EPHEMERIS_TYPE":0,"CLASSIFICATION_TYPE":"U","NORAD_CAT_ID":14780,"ELEMENT_SET_NO":999,"REV_AT_EPOCH":77643,"BSTAR":0.00029889959,"MEAN_MOTION_DOT":4.286e-5,"MEAN_MOTION_DDOT":0}]
